ONEWEB-0641             
1 55805U 23029K   24018.33929769  .00000040  00000+0  67968-4 0  9995
2 55805  87.9206 120.3014 0002032 106.4144 253.7212 13.19726888 42736
ONEWEB-0642             
1 55806U 23029L   24018.33456404  .00000060  00000+0  11861-3 0  9999
2 55806  87.9210 120.3188 0002915 103.3977 256.7481 13.19726606 42722
ONEWEB-0643             
1 55807U 23029M   24018.23298844  .00000244  00000+0  62397-3 0  9995
2 55807  87.8980 105.0851 0002648  88.9478 271.1955 13.14502739 43654
ONEWEB-0644             
1 55808U 23029N   24018.32981695  .00000048  00000+0  86997-4 0  9994
2 55808  87.9214 120.3127 0002456 102.6905 257.4502 13.19727327 42727
ONEWEB-0645             
1 55809U 23029P   24018.55333896  .00000124  00000+0  27698-3 0  9991
2 55809  87.9212 120.2716 0002365 115.1638 244.9740 13.19727195 42751
ONEWEB-0646             
1 55810U 23029Q   24018.28007057  .00000135  00000+0  30496-3 0  9992
2 55810  87.9210 120.3276 0002032 101.4799 258.6562 13.19726569 42703
ONEWEB-0648             
1 55811U 23029R   24018.27737652 -.00000052  00000+0 -17401-3 0  9994
2 55811  87.8978 105.0454 0002907 109.7344 250.4099 13.14504175 43663
ONEWEB-0649             
1 55812U 23029S   24018.31876539  .00000103  00000+0  22522-3 0  9993
2 55812  87.9208 120.3187 0002294 108.7609 251.3772 13.19724986 42741
